NORAD_CAT_ID,OBJECT_NAME,OBJECT_TYPE,EPOCH,MEAN_MOTION,ECCENTRICITY,INCLINATION,RA_OF_ASC_NODE,ARG_OF_PERICENTER,MEAN_ANOMALY,BSTAR,MEAN_MOTION_DOT,MEAN_MOTION_DDOT,TLE_LINE0,TLE_LINE1,TLE_LINE2,SEMIMAJOR_AXIS,PERIOD,APOGEE,PERIGEE,DECAYED
51773.0,STARLINK-3624,PAYLOAD,2024-07-15 14:48:55,15.08837765,0.0001508,53.2178,161.8975,90.7204,269.3961,6.1226e-05,6.87e-06,0.0,0 STARLINK-3624,1 51773U 22017F   24197.61731195  .00000687  00000-0  61226-4 0  9993,2 51773  53.2178 161.8975 0001508  90.7204 269.3961 15.08837765131713,6917.887,95.438,540.795,538.709,0.0
51773.0,STARLINK-3624,PAYLOAD,2024-07-16 05:07:23,15.08844548,0.0001487,53.2177,159.2228,90.7864,269.3298,3.9617e-05,3.43e-06,0.0,0 STARLINK-3624,1 51773U 22017F   24198.21346822  .00000343  00000-0  39617-4 0  9997,2 51773  53.2177 159.2228 0001487  90.7864 269.3298 15.08844548133264,6917.866,95.437,540.76,538.703,0.0
51773.0,STARLINK-3624,PAYLOAD,2024-07-16 06:42:46,15.08848412,0.0001507,53.2178,158.9249,89.8781,270.2384,6.6283e-05,7.67e-06,0.0,0 STARLINK-3624,1 51773U 22017F   24198.27970474  .00000767  00000-0  66283-4 0  9998,2 51773  53.2178 158.9249 0001507  89.8781 270.2384 15.08848412131814,6917.855,95.437,540.762,538.677,0.0
51773.0,STARLINK-3624,PAYLOAD,2024-07-17 14:30:29,15.08846366,0.0001095,53.2167,152.9743,97.0355,263.0761,3.4776e-05,2.66e-06,0.0,0 STARLINK-3624,1 51773U 22017F   24199.60450353  .00000266  00000-0  34776-4 0  9991,2 51773  53.2167 152.9743 0001095  97.0355 263.0761 15.08846366132013,6917.861,95.437,540.483,538.968,0.0
51773.0,STARLINK-3624,PAYLOAD,2024-07-18 03:13:34,15.0883981,0.0001533,53.2184,150.5941,98.0835,262.0331,-1.7159e-05,-5.61e-06,0.0,0 STARLINK-3624,1 51773U 22017F   24200.13443180 -.00000561  00000-0 -17159-4 0  9998,2 51773  53.2184 150.5941 0001533  98.0835 262.0331 15.08839810133555,6917.881,95.438,540.806,538.685,0.0
51773.0,STARLINK-3624,PAYLOAD,2024-07-18 14:21:16,15.08838123,0.0001523,53.2186,148.513,101.2197,258.8966,1.894e-05,1.3e-07,0.0,0 STARLINK-3624,1 51773U 22017F   24200.59811238  .00000013  00000-0  18940-4 0  9990,2 51773  53.2186 148.5130 0001523 101.2197 258.8966 15.08838123132160,6917.886,95.438,540.805,538.698,0.0
51773.0,STARLINK-3624,PAYLOAD,2024-07-19 03:04:21,15.08844075,0.0001579,53.2183,146.1352,101.8336,258.2833,-2.4285e-05,-6.75e-06,0.0,0 STARLINK-3624,1 51773U 22017F   24201.12803131 -.00000675  00000-0 -24285-4 0  9998,2 51773  53.2183 146.1352 0001579 101.8336 258.2833 15.08844075132248,6917.868,95.437,540.825,538.641,0.0
51773.0,STARLINK-3624,PAYLOAD,2024-07-20 02:55:09,15.08838013,0.0001425,53.2172,141.679,80.5721,279.5432,0.0001181,1.592e-05,0.0,0 STARLINK-3624,1 51773U 22017F   24202.12163373  .00001592  00000-0  11810-3 0  9992,2 51773  53.2172 141.6790 0001425  80.5721 279.5432 15.08838013133857,6917.886,95.438,540.737,538.766,0.0
51773.0,STARLINK-3624,PAYLOAD,2024-07-20 12:27:28,15.08835714,0.0001415,53.2179,139.8892,91.6814,268.434,9.5037e-05,1.225e-05,0.0,0 STARLINK-3624,1 51773U 22017F   24202.51907806  .00001225  00000-0  95037-4 0  9999,2 51773  53.2179 139.8892 0001415  91.6814 268.4340 15.08835714132456,6917.893,95.438,540.737,538.78,0.0
51773.0,STARLINK-3624,PAYLOAD,2024-07-21 05:56:42,15.08848827,0.000132,53.2171,136.6229,94.8299,265.2844,9.3682e-05,1.204e-05,0.0,0 STARLINK-3624,1 51773U 22017F   24203.24771016  .00001204  00000-0  93682-4 0  9993,2 51773  53.2171 136.6229 0001320  94.8299 265.2844 15.08848827134022,6917.853,95.437,540.632,538.805,0.0
51773.0,STARLINK-3624,PAYLOAD,2024-07-22 01:01:20,15.08841985,0.0001281,53.2161,133.0509,77.6994,282.4142,9.6586e-06,-1.34e-06,0.0,0 STARLINK-3624,1 51773U 22017F   24204.04259929 -.00000134  00000-0  96586-5 0  9995,2 51773  53.2161 133.0509 0001281  77.6994 282.4142 15.08841985134143,6917.874,95.437,540.626,538.853,0.0
51773.0,STARLINK-3624,PAYLOAD,2024-07-23 02:27:31,15.08845759,0.0001192,53.216,128.2946,93.6712,266.4416,6.1663e-05,6.94e-06,0.0,0 STARLINK-3624,1 51773U 22017F   24205.10244825  .00000694  00000-0  61663-4 0  9999,2 51773  53.2160 128.2946 0001192  93.6712 266.4416 15.08845759134307,6917.863,95.437,540.552,538.903,0.0
51773.0,STARLINK-3624,PAYLOAD,2024-07-23 11:59:49,15.08851528,0.0001225,53.2168,126.51,84.7877,275.3254,0.00012876,1.763e-05,0.0,0 STARLINK-3624,1 51773U 22017F   24205.49988244  .00001763  00000-0  12876-3 0  9990,2 51773  53.2168 126.5100 0001225  84.7877 275.3254 15.08851528132902,6917.845,95.437,540.558,538.863,0.0
51773.0,STARLINK-3624,PAYLOAD,2024-07-24 02:18:17,15.08855775,0.0001716,53.2171,123.835,43.714,316.3988,0.00037397,5.671e-05,0.0,0 STARLINK-3624,1 51773U 22017F   24206.09603332  .00005671  00000-0  37397-3 0  9996,2 51773  53.2171 123.8350 0001716  43.7140 316.3988 15.08855775134456,6917.832,95.437,540.884,538.51,0.0
51773.0,STARLINK-3624,PAYLOAD,2024-07-24 18:12:09,15.08850972,0.0001472,53.2179,120.8635,82.2532,277.8627,5.1394e-05,5.3e-06,0.0,0 STARLINK-3624,1 51773U 22017F   24206.75844634  .00000530  00000-0  51394-4 0  9994,2 51773  53.2179 120.8635 0001472  82.2532 277.8627 15.08850972134555,6917.847,95.437,540.73,538.694,0.0
51773.0,STARLINK-3624,PAYLOAD,2024-07-25 03:44:27,15.0885638,0.0001415,53.2168,119.0772,82.6616,277.4537,8.6527e-05,1.09e-05,0.0,0 STARLINK-3624,1 51773U 22017F   24207.15587944  .00001090  00000-0  86527-4 0  9995,2 51773  53.2168 119.0772 0001415  82.6616 277.4537 15.08856380133159,6917.83,95.437,540.674,538.716,0.0
51773.0,STARLINK-3624,PAYLOAD,2024-07-25 18:02:56,15.08846158,0.0001621,53.2176,116.4036,85.0286,275.0891,-8.7333e-05,-1.678e-05,0.0,0 STARLINK-3624,1 51773U 22017F   24207.75204696 -.00001678  00000-0 -87333-4 0  9991,2 51773  53.2176 116.4036 0001621  85.0286 275.0891 15.08846158134702,6917.862,95.437,540.848,538.605,0.0
51773.0,STARLINK-3624,PAYLOAD,2024-07-26 00:24:28,15.08852161,0.0001643,53.2179,115.2144,86.7923,273.3257,-0.00013365,-2.415e-05,0.0,0 STARLINK-3624,1 51773U 22017F   24208.01700181 -.00002415  00000-0 -13365-3 0  9994,2 51773  53.2179 115.2144 0001643  86.7923 273.3257 15.08852161134744,6917.843,95.437,540.845,538.572,0.0
51773.0,STARLINK-3624,PAYLOAD,2024-07-27 22:30:40,15.08826265,0.0001486,53.2167,106.5849,109.3975,250.7177,2.7081e-05,1.43e-06,0.0,0 STARLINK-3624,1 51773U 22017F   24209.93797045  .00000143  00000-0  27081-4 0  9996,2 51773  53.2167 106.5849 0001486 109.3975 250.7177 15.08826265133576,6917.922,95.438,540.815,538.759,0.0
51773.0,STARLINK-3624,PAYLOAD,2024-07-28 22:21:27,15.08826358,0.0001156,53.2171,102.1268,84.1362,275.9762,0.00014459,2.013e-05,0.0,0 STARLINK-3624,1 51773U 22017F   24210.93156854  .00002013  00000-0  14459-3 0  9997,2 51773  53.2171 102.1268 0001156  84.1362 275.9762 15.08826358133721,6917.922,95.438,540.587,538.987,0.0
51773.0,STARLINK-3624,PAYLOAD,2024-07-28 23:56:50,15.08831136,0.0001217,53.2179,101.8336,100.8974,259.2155,0.00020496,2.975e-05,0.0,0 STARLINK-3624,1 51773U 22017F   24210.99780429  .00002975  00000-0  20496-3 0  9999,2 51773  53.2179 101.8336 0001217 100.8974 259.2155 15.08831136135198,6917.907,95.438,540.614,538.931,0.0
51773.0,STARLINK-3624,PAYLOAD,2024-07-29 09:29:09,15.0883471,0.0001204,53.218,100.0494,97.9359,262.177,0.00021957,3.208e-05,0.0,0 STARLINK-3624,1 51773U 22017F   24211.39524510  .00003208  00000-0  21957-3 0  9994,2 51773  53.2180 100.0494 0001204  97.9359 262.1770 15.08834710133796,6917.897,95.438,540.594,538.929,0.0
51773.0,STARLINK-3624,PAYLOAD,2024-07-29 22:12:14,15.08835796,0.0001267,53.2181,97.6712,102.025,258.0885,0.00021327,3.108e-05,0.0,0 STARLINK-3624,1 51773U 22017F   24211.92516919  .00003108  00000-0  21327-3 0  9997,2 51773  53.2181  97.6712 0001267 102.0250 258.0885 15.08835796133873,6917.893,95.438,540.635,538.882,0.0
51773.0,STARLINK-3624,PAYLOAD,2024-07-30 09:19:56,15.08839963,0.0001005,53.2167,95.5903,106.6359,253.4744,0.00019004,2.738e-05,0.0,0 STARLINK-3624,1 51773U 22017F   24212.38884842  .00002738  00000-0  19004-3 0  9998,2 51773  53.2167  95.5903 0001005 106.6359 253.4744 15.08839963135400,6917.881,95.438,540.441,539.05,0.0
51773.0,STARLINK-3624,PAYLOAD,2024-07-30 22:03:01,15.08847098,0.0001214,53.2175,93.211,101.5835,258.5293,0.00010304,1.353e-05,0.0,0 STARLINK-3624,1 51773U 22017F   24212.91876675  .00001353  00000-0  10304-3 0  9998,2 51773  53.2175  93.2110 0001214 101.5835 258.5293 15.08847098134029,6917.859,95.437,540.564,538.884,0.0
51773.0,STARLINK-3624,PAYLOAD,2024-07-31 09:10:43,15.08842684,0.0001345,53.2176,91.1296,85.0817,275.0329,5.6532e-05,6.12e-06,0.0,0 STARLINK-3624,1 51773U 22017F   24213.38245080  .00000612  00000-0  56532-4 0  9991,2 51773  53.2176  91.1296 0001345  85.0817 275.0329 15.08842684134090,6917.872,95.437,540.668,538.807,0.0
51773.0,STARLINK-3624,PAYLOAD,2024-07-31 21:53:49,15.08838189,0.0001492,53.2172,88.7485,79.9891,280.1269,-3.1551e-05,-7.9e-06,0.0,0 STARLINK-3624,1 51773U 22017F   24213.91237710 -.00000790  00000-0 -31551-4 0  9994,2 51773  53.2172  88.7485 0001492  79.9891 280.1269 15.08838189134179,6917.886,95.438,540.783,538.719,0.0
51773.0,STARLINK-3624,PAYLOAD,2024-08-01 09:01:30,15.08850632,0.0001337,53.2176,86.6682,79.7542,280.3601,0.00014763,2.063e-05,0.0,0 STARLINK-3624,1 51773U 22017F   24214.37604437  .00002063  00000-0  14763-3 0  9997,2 51773  53.2176  86.6682 0001337  79.7542 280.3601 15.08850632135707,6917.848,95.437,540.638,538.788,0.0
51773.0,STARLINK-3624,PAYLOAD,2024-08-01 21:44:34,15.08867246,0.0001368,53.215,84.2875,79.7941,280.3205,0.00044006,6.728e-05,0.0,0 STARLINK-3624,1 51773U 22017F   24214.90595542  .00006728  00000-0  44006-3 0  9997,2 51773  53.2150  84.2875 0001368  79.7941 280.3205 15.08867246135781,6917.797,95.436,540.608,538.716,0.0
51773.0,STARLINK-3624,PAYLOAD,2024-08-02 08:52:16,15.08852805,0.0001412,53.2169,82.2046,82.4027,277.7126,0.00026213,3.888e-05,0.0,0 STARLINK-3624,1 51773U 22017F   24215.36964055  .00003888  00000-0  26213-3 0  9991,2 51773  53.2169  82.2046 0001412  82.4027 277.7126 15.08852805135850,6917.841,95.437,540.683,538.729,0.0
